[{"OBJECT_NAME":"POLYTECH-UNIVERSE 3 (RS46S)","OBJECT_ID":"2023-091AB","EPOCH":"2025-01-10T13:46:43.058208","MEAN_MOTION":15.11886446,"ECCENTRICITY":0.0018933,"INCLINATION":97.5836,"RA_OF_ASC_NODE":66.8354,"ARG_OF_PERICENTER":135.0337,"MEAN_ANOMALY":225.243,"EPHEMERIS_TYPE":0,"CLASSIFICATION_TYPE":"U","NORAD_CAT_ID":57191,"ELEMENT_SET_NO":999,"REV_AT_EPOCH":8478,"BSTAR":0.00046439,"MEAN_MOTION_DOT":7.919e-5,"MEAN_MOTION_DDOT":0},{"OBJECT_NAME":"UTMN 2 (RS27S)","OBJECT_ID":"2023-091AP","EPOCH":"2025-01-10T13:34:02.203392","MEAN_MOTION":15.17060217,"ECCENTRICITY":0.0012484,"INCLINATION":97.5861,"RA_OF_ASC_NODE":69.0291,"ARG_OF_PERICENTER":110.1201,"MEAN_ANOMALY":250.1377,"EPHEMERIS_TYPE":0,"CLASSIFICATION_TYPE":"U","NORAD_CAT_ID":57203,"ELEMENT_SET_NO":999,"REV_AT_EPOCH":8491,"BSTAR":0.00071714,"MEAN_MOTION_DOT":0.0001417,"MEAN_MOTION_DDOT":0},{"OBJECT_NAME":"ARCCUBE 1 (RS25S)","OBJECT_ID":"2023-091AR","EPOCH":"2025-01-10T12:55:06.192768","MEAN_MOTION":15.29256102,"ECCENTRICITY":0.0008955,"INCLINATION":97.5766,"RA_OF_ASC_NODE":71.8949,"ARG_OF_PERICENTER":107.523,"MEAN_ANOMALY":252.6989,"EPHEMERIS_TYPE":0,"CLASSIFICATION_TYPE":"U","NORAD_CAT_ID":57205,"ELEMENT_SET_NO":999,"REV_AT_EPOCH":8512,"BSTAR":0.0012512,"MEAN_MOTION_DOT":0.00035607,"MEAN_MOTION_DDOT":0},{"OBJECT_NAME":"KUZGTU 1 (RS47S)","OBJECT_ID":"2023-091AV","EPOCH":"2025-01-10T10:55:05.206368","MEAN_MOTION":15.15587084,"ECCENTRICITY":0.0016177,"INCLINATION":97.5846,"RA_OF_ASC_NODE":67.707,"ARG_OF_PERICENTER":122.7348,"MEAN_ANOMALY":237.5446,"EPHEMERIS_TYPE":0,"CLASSIFICATION_TYPE":"U","NORAD_CAT_ID":57217,"ELEMENT_SET_NO":999,"REV_AT_EPOCH":8482,"BSTAR":0.00059317,"MEAN_MOTION_DOT":0.00011237,"MEAN_MOTION_DDOT":0},{"OBJECT_NAME":"SONATE-2","OBJECT_ID":"2024-043Q","EPOCH":"2025-01-10T14:37:25.038048","MEAN_MOTION":15.28153521,"ECCENTRICITY":0.0011735,"INCLINATION":97.4953,"RA_OF_ASC_NODE":139.8123,"ARG_OF_PERICENTER":288.7869,"MEAN_ANOMALY":71.2097,"EPHEMERIS_TYPE":0,"CLASSIFICATION_TYPE":"U","NORAD_CAT_ID":59112,"ELEMENT_SET_NO":999,"REV_AT_EPOCH":4737,"BSTAR":0.00071535,"MEAN_MOTION_DOT":0.00019625,"MEAN_MOTION_DDOT":0},{"OBJECT_NAME":"MESAT1","OBJECT_ID":"2024-125G","EPOCH":"2025-01-10T09:20:20.623776","MEAN_MOTION":15.28329905,"ECCENTRICITY":0.0021623,"INCLINATION":97.2966,"RA_OF_ASC_NODE":224.3013,"ARG_OF_PERICENTER":318.3733,"MEAN_ANOMALY":41.586,"EPHEMERIS_TYPE":0,"CLASSIFICATION_TYPE":"U","NORAD_CAT_ID":60209,"ELEMENT_SET_NO":999,"REV_AT_EPOCH":2895,"BSTAR":0.00069526,"MEAN_MOTION_DOT":0.0001927,"MEAN_MOTION_DDOT":0},{"OBJECT_NAME":"OOV-CUBE (TUBSAT-30)","OBJECT_ID":"2024-128F","EPOCH":"2025-01-10T08:42:16.606080","MEAN_MOTION":14.98737323,"ECCENTRICITY":0.0033276,"INCLINATION":61.9963,"RA_OF_ASC_NODE":243.5387,"ARG_OF_PERICENTER":17.6984,"MEAN_ANOMALY":342.5256,"EPHEMERIS_TYPE":0,"CLASSIFICATION_TYPE":"U","NORAD_CAT_ID":60240,"ELEMENT_SET_NO":999,"REV_AT_EPOCH":2763,"BSTAR":0.00029462,"MEAN_MOTION_DOT":3.401e-5,"MEAN_MOTION_DDOT":0},{"OBJECT_NAME":"COLIBRI-S (RS67S)","OBJECT_ID":"2024-199M","EPOCH":"2025-01-10T13:22:15.682944","MEAN_MOTION":15.26696884,"ECCENTRICITY":0.001446,"INCLINATION":97.3801,"RA_OF_ASC_NODE":240.4879,"ARG_OF_PERICENTER":4.1169,"MEAN_ANOMALY":356.0186,"EPHEMERIS_TYPE":0,"CLASSIFICATION_TYPE":"U","NORAD_CAT_ID":61746,"ELEMENT_SET_NO":999,"REV_AT_EPOCH":5715,"BSTAR":0.00064843,"MEAN_MOTION_DOT":0.00017026,"MEAN_MOTION_DDOT":0},{"OBJECT_NAME":"HORS 3 (RS81S)","OBJECT_ID":"2024-199U","EPOCH":"2025-01-10T13:23:50.548416","MEAN_MOTION":15.26866165,"ECCENTRICITY":0.0013233,"INCLINATION":97.3775,"RA_OF_ASC_NODE":240.4643,"ARG_OF_PERICENTER":12.1228,"MEAN_ANOMALY":348.0326,"EPHEMERIS_TYPE":0,"CLASSIFICATION_TYPE":"U","NORAD_CAT_ID":61753,"ELEMENT_SET_NO":999,"REV_AT_EPOCH":5715,"BSTAR":0.00073151,"MEAN_MOTION_DOT":0.00019312,"MEAN_MOTION_DDOT":0},{"OBJECT_NAME":"HORS 4 (RS82S)","OBJECT_ID":"2024-199V","EPOCH":"2025-01-10T13:12:43.516224","MEAN_MOTION":15.27168934,"ECCENTRICITY":0.0013418,"INCLINATION":97.3771,"RA_OF_ASC_NODE":240.4737,"ARG_OF_PERICENTER":12.3074,"MEAN_ANOMALY":347.849,"EPHEMERIS_TYPE":0,"CLASSIFICATION_TYPE":"U","NORAD_CAT_ID":61754,"ELEMENT_SET_NO":999,"REV_AT_EPOCH":5715,"BSTAR":0.00079516,"MEAN_MOTION_DOT":0.00021198,"MEAN_MOTION_DDOT":0},{"OBJECT_NAME":"HORIZON (RS59S)","OBJECT_ID":"2024-199Y","EPOCH":"2025-01-10T14:19:17.433120","MEAN_MOTION":15.27930651,"ECCENTRICITY":0.001426,"INCLINATION":97.3798,"RA_OF_ASC_NODE":240.5856,"ARG_OF_PERICENTER":2.0402,"MEAN_ANOMALY":358.0893,"EPHEMERIS_TYPE":0,"CLASSIFICATION_TYPE":"U","NORAD_CAT_ID":61757,"ELEMENT_SET_NO":999,"REV_AT_EPOCH":5716,"BSTAR":0.00095901,"MEAN_MOTION_DOT":0.00026207,"MEAN_MOTION_DDOT":0},{"OBJECT_NAME":"SIT-2086","OBJECT_ID":"2024-199AF","EPOCH":"2025-01-10T14:10:55.319520","MEAN_MOTION":15.27834923,"ECCENTRICITY":0.0011694,"INCLINATION":97.3774,"RA_OF_ASC_NODE":240.573,"ARG_OF_PERICENTER":13.4314,"MEAN_ANOMALY":346.7234,"EPHEMERIS_TYPE":0,"CLASSIFICATION_TYPE":"U","NORAD_CAT_ID":61764,"ELEMENT_SET_NO":999,"REV_AT_EPOCH":5400,"BSTAR":0.00084629,"MEAN_MOTION_DOT":0.00023019,"MEAN_MOTION_DDOT":0},{"OBJECT_NAME":"MORDOVIA-IOT (RS50S)","OBJECT_ID":"2024-199AG","EPOCH":"2025-01-10T13:32:53.058336","MEAN_MOTION":15.2912903,"ECCENTRICITY":0.0013956,"INCLINATION":97.3799,"RA_OF_ASC_NODE":240.6286,"ARG_OF_PERICENTER":359.6137,"MEAN_ANOMALY":0.509,"EPHEMERIS_TYPE":0,"CLASSIFICATION_TYPE":"U","NORAD_CAT_ID":61765,"ELEMENT_SET_NO":999,"REV_AT_EPOCH":5401,"BSTAR":0.0011499,"MEAN_MOTION_DOT":0.00032634,"MEAN_MOTION_DDOT":0},{"OBJECT_NAME":"RUZAEVKA 390 (RS44S)","OBJECT_ID":"2024-199AH","EPOCH":"2025-01-10T13:38:25.507392","MEAN_MOTION":15.28867021,"ECCENTRICITY":0.0013755,"INCLINATION":97.3797,"RA_OF_ASC_NODE":240.6209,"ARG_OF_PERICENTER":359.2361,"MEAN_ANOMALY":0.8856,"EPHEMERIS_TYPE":0,"CLASSIFICATION_TYPE":"U","NORAD_CAT_ID":61766,"ELEMENT_SET_NO":999,"REV_AT_EPOCH":5401,"BSTAR":0.001024,"MEAN_MOTION_DOT":0.00028803,"MEAN_MOTION_DDOT":0},{"OBJECT_NAME":"HYPERVIEW 1G (RS66S)","OBJECT_ID":"2024-199AP","EPOCH":"2025-01-10T13:52:20.629056","MEAN_MOTION":15.26758764,"ECCENTRICITY":0.0017399,"INCLINATION":97.3771,"RA_OF_ASC_NODE":240.4364,"ARG_OF_PERICENTER":12.944,"MEAN_ANOMALY":347.2241,"EPHEMERIS_TYPE":0,"CLASSIFICATION_TYPE":"U","NORAD_CAT_ID":61772,"ELEMENT_SET_NO":999,"REV_AT_EPOCH":5400,"BSTAR":0.00092037,"MEAN_MOTION_DOT":0.00024298,"MEAN_MOTION_DDOT":0},{"OBJECT_NAME":"ALTAIR (RS65S)","OBJECT_ID":"2024-199AW","EPOCH":"2025-01-10T13:13:23.356128","MEAN_MOTION":15.24936661,"ECCENTRICITY":0.0017698,"INCLINATION":97.3783,"RA_OF_ASC_NODE":240.3258,"ARG_OF_PERICENTER":14.0309,"MEAN_ANOMALY":346.1417,"EPHEMERIS_TYPE":0,"CLASSIFICATION_TYPE":"U","NORAD_CAT_ID":61779,"ELEMENT_SET_NO":999,"REV_AT_EPOCH":5714,"BSTAR":0.00043193,"MEAN_MOTION_DOT":0.00010739,"MEAN_MOTION_DDOT":0}]
