POLYTECH-UNIVERSE 3 (R*)
1 57191U 23091AB  25010.57410947  .00007919  00000+0  46439-3 0  9997
2 57191  97.5836  66.8354 0018933 135.0337 225.2430 15.11886446 84780
UTMN 2 (RS27S)          
1 57203U 23091AP  25010.56530328  .00014170  00000+0  71714-3 0  9997
2 57203  97.5861  69.0291 0012484 110.1201 250.1377 15.17060217 84914
ARCCUBE 1 (RS25S)       
1 57205U 23091AR  25010.53826612  .00035607  00000+0  12512-2 0  9998
2 57205  97.5766  71.8949 0008955 107.5230 252.6989 15.29256102 85124
KUZGTU 1 (RS47S)        
1 57217U 23091AV  25010.45492137  .00011237  00000+0  59317-3 0  9991
2 57217  97.5846  67.7070 0016177 122.7348 237.5446 15.15587084 84826
SONATE-2                
1 59112U 24043Q   25010.60931757  .00019625  00000+0  71535-3 0  9993
2 59112  97.4953 139.8123 0011735 288.7869  71.2097 15.28153521 47379
MESAT1                  
1 60209U 24125G   25010.38912759  .00019270  00000+0  69526-3 0  9992
2 60209  97.2966 224.3013 0021623 318.3733  41.5860 15.28329905 28957
OOV-CUBE (TUBSAT-30)    
1 60240U 24128F   25010.36269220  .00003401  00000+0  29462-3 0  9990
2 60240  61.9963 243.5387 0033276  17.6984 342.5256 14.98737323 27638
COLIBRI-S (RS67S)       
1 61746U 24199M   25010.55712596  .00017026  00000+0  64843-3 0  9990
2 61746  97.3801 240.4879 0014460   4.1169 356.0186 15.26696884 57156
HORS 3 (RS81S)          
1 61753U 24199U   25010.55822394  .00019312  00000+0  73151-3 0  9998
2 61753  97.3775 240.4643 0013233  12.1228 348.0326 15.26866165 57153
HORS 4 (RS82S)          
1 61754U 24199V   25010.55050366  .00021198  00000+0  79516-3 0  9997
2 61754  97.3771 240.4737 0013418  12.3074 347.8490 15.27168934 57159
HORIZON (RS59S)         
1 61757U 24199Y   25010.59672955  .00026207  00000+0  95901-3 0  9990
2 61757  97.3798 240.5856 0014260   2.0402 358.0893 15.27930651 57166
SIT-2086                
1 61764U 24199AF  25010.59091805  .00023019  00000+0  84629-3 0  9990
2 61764  97.3774 240.5730 0011694  13.4314 346.7234 15.27834923 54003
MORDOVIA-IOT (RS50S)    
1 61765U 24199AG  25010.56450299  .00032634  00000+0  11499-2 0  9991
2 61765  97.3799 240.6286 0013956 359.6137   0.5090 15.29129030 54013
RUZAEVKA 390 (RS44S)    
1 61766U 24199AH  25010.56835078  .00028803  00000+0  10240-2 0  9990
2 61766  97.3797 240.6209 0013755 359.2361   0.8856 15.28867021 54010
HYPERVIEW 1G (RS66S)    
1 61772U 24199AP  25010.57801654  .00024298  00000+0  92037-3 0  9990
2 61772  97.3771 240.4364 0017399  12.9440 347.2241 15.26758764 54004
ALTAIR (RS65S)          
1 61779U 24199AW  25010.55096477  .00010739  00000+0  43193-3 0  9998
2 61779  97.3783 240.3258 0017698  14.0309 346.1417 15.24936661 57147
